[{"OBJECT_NAME":"FENGYUN 1C DEB","OBJECT_ID":"1999-025EGR","EPOCH":"2026-04-02T08:37:14.008224","MEAN_MOTION":14.07856457,"ECCENTRICITY":0.00487139,"INCLINATION":98.7723,"RA_OF_ASC_NODE":144.5373,"ARG_OF_PERICENTER":206.1133,"MEAN_ANOMALY":153.7579,"EPHEMERIS_TYPE":0,"CLASSIFICATION_TYPE":"U","NORAD_CAT_ID":37423,"ELEMENT_SET_NO":999,"REV_AT_EPOCH":65166,"BSTAR":0.00091473057,"MEAN_MOTION_DOT":1.525e-5,"MEAN_MOTION_DDOT":0},{"OBJECT_NAME":"FENGYUN 1C DEB","OBJECT_ID":"1999-025EGS","EPOCH":"2026-04-05T14:03:59.357952","MEAN_MOTION":14.18545056,"ECCENTRICITY":0.02118186,"INCLINATION":97.2037,"RA_OF_ASC_NODE":207.8006,"ARG_OF_PERICENTER":302.0135,"MEAN_ANOMALY":56.0618,"EPHEMERIS_TYPE":0,"CLASSIFICATION_TYPE":"U","NORAD_CAT_ID":37424,"ELEMENT_SET_NO":999,"REV_AT_EPOCH":70187,"BSTAR":0.0008662399,"MEAN_MOTION_DOT":2.204e-5,"MEAN_MOTION_DDOT":0},{"OBJECT_NAME":"FENGYUN 1C DEB","OBJECT_ID":"1999-025EGV","EPOCH":"2026-04-05T03:57:44.239104","MEAN_MOTION":15.00290926,"ECCENTRICITY":0.01755126,"INCLINATION":98.6418,"RA_OF_ASC_NODE":254.2826,"ARG_OF_PERICENTER":285.8094,"MEAN_ANOMALY":72.3837,"EPHEMERIS_TYPE":0,"CLASSIFICATION_TYPE":"U","NORAD_CAT_ID":37427,"ELEMENT_SET_NO":999,"REV_AT_EPOCH":62022,"BSTAR":0.0004368704,"MEAN_MOTION_DOT":7.51e-5,"MEAN_MOTION_DDOT":0},{"OBJECT_NAME":"FENGYUN 1C DEB","OBJECT_ID":"1999-025EGW","EPOCH":"2026-03-30T20:44:42.561600","MEAN_MOTION":14.36007151,"ECCENTRICITY":0.00556856,"INCLINATION":97.7165,"RA_OF_ASC_NODE":306.2127,"ARG_OF_PERICENTER":130.602,"MEAN_ANOMALY":230.0032,"EPHEMERIS_TYPE":0,"CLASSIFICATION_TYPE":"U","NORAD_CAT_ID":37428,"ELEMENT_SET_NO":999,"REV_AT_EPOCH":64987,"BSTAR":0.0024880766,"MEAN_MOTION_DOT":7.329e-5,"MEAN_MOTION_DDOT":0},{"OBJECT_NAME":"FENGYUN 1C DEB","OBJECT_ID":"1999-025EGY","EPOCH":"2026-03-30T04:04:23.448576","MEAN_MOTION":14.30000344,"ECCENTRICITY":0.0020156,"INCLINATION":98.7538,"RA_OF_ASC_NODE":168.8613,"ARG_OF_PERICENTER":117.253,"MEAN_ANOMALY":243.0709,"EPHEMERIS_TYPE":0,"CLASSIFICATION_TYPE":"U","NORAD_CAT_ID":37430,"ELEMENT_SET_NO":999,"REV_AT_EPOCH":63236,"BSTAR":0.0020279426,"MEAN_MOTION_DOT":5.201e-5,"MEAN_MOTION_DDOT":0},{"OBJECT_NAME":"FENGYUN 1C DEB","OBJECT_ID":"1999-025EHA","EPOCH":"2026-03-29T07:37:35.902560","MEAN_MOTION":14.54393259,"ECCENTRICITY":0.01793565,"INCLINATION":98.1812,"RA_OF_ASC_NODE":104.2421,"ARG_OF_PERICENTER":318.6764,"MEAN_ANOMALY":40.0976,"EPHEMERIS_TYPE":0,"CLASSIFICATION_TYPE":"U","NORAD_CAT_ID":37432,"ELEMENT_SET_NO":999,"REV_AT_EPOCH":9925,"BSTAR":0.0010307123,"MEAN_MOTION_DOT":5.38e-5,"MEAN_MOTION_DDOT":0},{"OBJECT_NAME":"FENGYUN 1C DEB","OBJECT_ID":"1999-025EHD","EPOCH":"2026-04-02T08:39:29.271744","MEAN_MOTION":14.22919514,"ECCENTRICITY":0.00411865,"INCLINATION":98.6336,"RA_OF_ASC_NODE":131.5685,"ARG_OF_PERICENTER":55.4156,"MEAN_ANOMALY":305.0897,"EPHEMERIS_TYPE":0,"CLASSIFICATION_TYPE":"U","NORAD_CAT_ID":37435,"ELEMENT_SET_NO":999,"REV_AT_EPOCH":90512,"BSTAR":0.0012439409,"MEAN_MOTION_DOT":2.779e-5,"MEAN_MOTION_DDOT":0},{"OBJECT_NAME":"FENGYUN 1C DEB","OBJECT_ID":"1999-025EHE","EPOCH":"2026-04-05T09:27:12.606624","MEAN_MOTION":14.06571725,"ECCENTRICITY":0.00590776,"INCLINATION":98.916,"RA_OF_ASC_NODE":153.3516,"ARG_OF_PERICENTER":189.5325,"MEAN_ANOMALY":170.4727,"EPHEMERIS_TYPE":0,"CLASSIFICATION_TYPE":"U","NORAD_CAT_ID":37436,"ELEMENT_SET_NO":999,"REV_AT_EPOCH":65596,"BSTAR":0.0005954676,"MEAN_MOTION_DOT":9.58e-6,"MEAN_MOTION_DDOT":0},{"OBJECT_NAME":"FENGYUN 1C DEB","OBJECT_ID":"1999-025EHF","EPOCH":"2026-04-03T17:41:07.588896","MEAN_MOTION":14.19143481,"ECCENTRICITY":0.01127409,"INCLINATION":98.5965,"RA_OF_ASC_NODE":87.1952,"ARG_OF_PERICENTER":85.231,"MEAN_ANOMALY":97.9174,"EPHEMERIS_TYPE":0,"CLASSIFICATION_TYPE":"U","NORAD_CAT_ID":37437,"ELEMENT_SET_NO":999,"REV_AT_EPOCH":65579,"BSTAR":0.00070525917,"MEAN_MOTION_DOT":1.531e-5,"MEAN_MOTION_DDOT":0},{"OBJECT_NAME":"FENGYUN 1C DEB","OBJECT_ID":"1999-025EHK","EPOCH":"2026-04-02T06:16:29.493408","MEAN_MOTION":13.14482041,"ECCENTRICITY":0.05087242,"INCLINATION":99.1458,"RA_OF_ASC_NODE":289.4638,"ARG_OF_PERICENTER":151.314,"MEAN_ANOMALY":211.6995,"EPHEMERIS_TYPE":0,"CLASSIFICATION_TYPE":"U","NORAD_CAT_ID":37441,"ELEMENT_SET_NO":999,"REV_AT_EPOCH":83624,"BSTAR":0.0017731545,"MEAN_MOTION_DOT":1.234e-5,"MEAN_MOTION_DDOT":0},{"OBJECT_NAME":"FENGYUN 1C DEB","OBJECT_ID":"1999-025EHN","EPOCH":"2026-04-05T12:35:34.477440","MEAN_MOTION":14.4923258,"ECCENTRICITY":0.02412679,"INCLINATION":99.0712,"RA_OF_ASC_NODE":189.6452,"ARG_OF_PERICENTER":9.1377,"MEAN_ANOMALY":351.4089,"EPHEMERIS_TYPE":0,"CLASSIFICATION_TYPE":"U","NORAD_CAT_ID":37444,"ELEMENT_SET_NO":999,"REV_AT_EPOCH":66798,"BSTAR":0.00072870716,"MEAN_MOTION_DOT":3.966e-5,"MEAN_MOTION_DDOT":0},{"OBJECT_NAME":"FENGYUN 1C DEB","OBJECT_ID":"1999-025EHS","EPOCH":"2026-04-02T22:12:15.347232","MEAN_MOTION":13.87746153,"ECCENTRICITY":0.03070158,"INCLINATION":99.3062,"RA_OF_ASC_NODE":162.3654,"ARG_OF_PERICENTER":120.4189,"MEAN_ANOMALY":242.7687,"EPHEMERIS_TYPE":0,"CLASSIFICATION_TYPE":"U","NORAD_CAT_ID":37448,"ELEMENT_SET_NO":999,"REV_AT_EPOCH":63917,"BSTAR":0.0029083024,"MEAN_MOTION_DOT":4.974e-5,"MEAN_MOTION_DDOT":0},{"OBJECT_NAME":"FENGYUN 1C DEB","OBJECT_ID":"1999-025EJE","EPOCH":"2026-04-04T10:28:41.103840","MEAN_MOTION":14.49854832,"ECCENTRICITY":0.0052715,"INCLINATION":98.3846,"RA_OF_ASC_NODE":274.5435,"ARG_OF_PERICENTER":306.699,"MEAN_ANOMALY":52.9367,"EPHEMERIS_TYPE":0,"CLASSIFICATION_TYPE":"U","NORAD_CAT_ID":37460,"ELEMENT_SET_NO":999,"REV_AT_EPOCH":84121,"BSTAR":0.0029957213,"MEAN_MOTION_DOT":0.00011744,"MEAN_MOTION_DDOT":0},{"OBJECT_NAME":"FENGYUN 1C DEB","OBJECT_ID":"1999-025EJF","EPOCH":"2026-04-01T21:51:30.542688","MEAN_MOTION":12.79441328,"ECCENTRICITY":0.0661555,"INCLINATION":99.8693,"RA_OF_ASC_NODE":332.0336,"ARG_OF_PERICENTER":85.3246,"MEAN_ANOMALY":282.304,"EPHEMERIS_TYPE":0,"CLASSIFICATION_TYPE":"U","NORAD_CAT_ID":37461,"ELEMENT_SET_NO":999,"REV_AT_EPOCH":53443,"BSTAR":0.0041699,"MEAN_MOTION_DOT":2.344e-5,"MEAN_MOTION_DDOT":0},{"OBJECT_NAME":"FENGYUN 1C DEB","OBJECT_ID":"1999-025EJJ","EPOCH":"2026-03-31T14:46:02.153280","MEAN_MOTION":13.47949926,"ECCENTRICITY":0.04511368,"INCLINATION":102.7112,"RA_OF_ASC_NODE":49.2065,"ARG_OF_PERICENTER":239.1375,"MEAN_ANOMALY":116.4636,"EPHEMERIS_TYPE":0,"CLASSIFICATION_TYPE":"U","NORAD_CAT_ID":37464,"ELEMENT_SET_NO":999,"REV_AT_EPOCH":62388,"BSTAR":0.0020527989,"MEAN_MOTION_DOT":2.298e-5,"MEAN_MOTION_DDOT":0},{"OBJECT_NAME":"FENGYUN 1C DEB","OBJECT_ID":"1999-025EJQ","EPOCH":"2026-04-02T21:27:34.515072","MEAN_MOTION":15.36044485,"ECCENTRICITY":0.00103744,"INCLINATION":98.6658,"RA_OF_ASC_NODE":256.679,"ARG_OF_PERICENTER":275.4404,"MEAN_ANOMALY":84.5652,"EPHEMERIS_TYPE":0,"CLASSIFICATION_TYPE":"U","NORAD_CAT_ID":37470,"ELEMENT_SET_NO":999,"REV_AT_EPOCH":67144,"BSTAR":0.016185474,"MEAN_MOTION_DOT":0.0060818,"MEAN_MOTION_DDOT":0},{"OBJECT_NAME":"FENGYUN 1C DEB","OBJECT_ID":"1999-025EJU","EPOCH":"2026-04-04T21:24:59.274144","MEAN_MOTION":14.77641437,"ECCENTRICITY":0.01271187,"INCLINATION":99.1577,"RA_OF_ASC_NODE":320.2046,"ARG_OF_PERICENTER":142.6963,"MEAN_ANOMALY":218.3157,"EPHEMERIS_TYPE":0,"CLASSIFICATION_TYPE":"U","NORAD_CAT_ID":37474,"ELEMENT_SET_NO":999,"REV_AT_EPOCH":64045,"BSTAR":0.0016348647,"MEAN_MOTION_DOT":0.00013334,"MEAN_MOTION_DDOT":0},{"OBJECT_NAME":"FENGYUN 1C DEB","OBJECT_ID":"1999-025EJW","EPOCH":"2026-03-30T05:23:47.899680","MEAN_MOTION":11.91407243,"ECCENTRICITY":0.10765721,"INCLINATION":98.9412,"RA_OF_ASC_NODE":84.3517,"ARG_OF_PERICENTER":17.1232,"MEAN_ANOMALY":346.3368,"EPHEMERIS_TYPE":0,"CLASSIFICATION_TYPE":"U","NORAD_CAT_ID":37476,"ELEMENT_SET_NO":999,"REV_AT_EPOCH":68723,"BSTAR":0.0078626669,"MEAN_MOTION_DOT":3.011e-5,"MEAN_MOTION_DDOT":0},{"OBJECT_NAME":"FENGYUN 1C DEB","OBJECT_ID":"1999-025EJX","EPOCH":"2026-04-04T06:35:52.155744","MEAN_MOTION":14.20043581,"ECCENTRICITY":0.0038025,"INCLINATION":98.6115,"RA_OF_ASC_NODE":100.8409,"ARG_OF_PERICENTER":140.5216,"MEAN_ANOMALY":219.8742,"EPHEMERIS_TYPE":0,"CLASSIFICATION_TYPE":"U","NORAD_CAT_ID":37477,"ELEMENT_SET_NO":999,"REV_AT_EPOCH":83511,"BSTAR":0.0008764139,"MEAN_MOTION_DOT":1.837e-5,"MEAN_MOTION_DDOT":0},{"OBJECT_NAME":"FENGYUN 1C DEB","OBJECT_ID":"1999-025EJY","EPOCH":"2026-04-05T04:24:50.454720","MEAN_MOTION":13.03386035,"ECCENTRICITY":0.0547846,"INCLINATION":99.6562,"RA_OF_ASC_NODE":71.0205,"ARG_OF_PERICENTER":57.7358,"MEAN_ANOMALY":307.5632,"EPHEMERIS_TYPE":0,"CLASSIFICATION_TYPE":"U","NORAD_CAT_ID":37478,"ELEMENT_SET_NO":999,"REV_AT_EPOCH":58039,"BSTAR":0.0036436958,"MEAN_MOTION_DOT":2.322e-5,"MEAN_MOTION_DDOT":0},{"OBJECT_NAME":"FENGYUN 1C DEB","OBJECT_ID":"1999-025EKH","EPOCH":"2026-04-03T00:28:27.696864","MEAN_MOTION":14.09423936,"ECCENTRICITY":0.01182809,"INCLINATION":99.0743,"RA_OF_ASC_NODE":1.3593,"ARG_OF_PERICENTER":312.8821,"MEAN_ANOMALY":46.2463,"EPHEMERIS_TYPE":0,"CLASSIFICATION_TYPE":"U","NORAD_CAT_ID":37589,"ELEMENT_SET_NO":999,"REV_AT_EPOCH":84151,"BSTAR":0.0048341456,"MEAN_MOTION_DOT":8.965e-5,"MEAN_MOTION_DDOT":0},{"OBJECT_NAME":"FENGYUN 1C DEB","OBJECT_ID":"1999-025EKK","EPOCH":"2026-04-01T03:08:59.792640","MEAN_MOTION":14.57568595,"ECCENTRICITY":0.00706505,"INCLINATION":98.4108,"RA_OF_ASC_NODE":43.156,"ARG_OF_PERICENTER":18.5278,"MEAN_ANOMALY":356.4901,"EPHEMERIS_TYPE":0,"CLASSIFICATION_TYPE":"U","NORAD_CAT_ID":37591,"ELEMENT_SET_NO":999,"REV_AT_EPOCH":68056,"BSTAR":0.0079193793,"MEAN_MOTION_DOT":0.00037442,"MEAN_MOTION_DDOT":0},{"OBJECT_NAME":"FENGYUN 1C DEB","OBJECT_ID":"1999-025EKN","EPOCH":"2026-04-05T08:17:00.140064","MEAN_MOTION":14.11242658,"ECCENTRICITY":0.00846903,"INCLINATION":98.7203,"RA_OF_ASC_NODE":126.527,"ARG_OF_PERICENTER":307.8291,"MEAN_ANOMALY":51.5237,"EPHEMERIS_TYPE":0,"CLASSIFICATION_TYPE":"U","NORAD_CAT_ID":37594,"ELEMENT_SET_NO":999,"REV_AT_EPOCH":79364,"BSTAR":0.00029346573,"MEAN_MOTION_DOT":5.04e-6,"MEAN_MOTION_DDOT":0}]
